[
   {
      "airportID":"VTBS",
      "lat":"13.681100",
      "long":"100.747000",
      "selection":"Departure",
      "colour":"black",
      "notams": "TURN LEFT ONTO TWY T AND TWY R8. 13 SEP 20:00 2023 UNTIL 13 SEP 22:00 2023. CREATED: 12 SEP 08:34 2023",
      "metar":"METAR VTBS 130400Z 18006KT 120V210 9999 FEW018 FEW020TCU SCT160 BKN300 31/25 Q1012 NOSIG",
      "taf":"TAF VTBS 122300Z 1300/1406 15010KT 9999 FEW015 SCT020 TEMPO 1305/1308 3000 TSRA FEW012CB BKN015"
   },
   {
      "airportID":"WSSS",
      "lat":"1.350190",
      "long":"103.994000",
      "selection":"Arrival",
      "colour":"black",
      "notams": "TURN LEFT ONTO TWY T AND TWY R8. 13 SEP 20:00 2023 UNTIL 13 SEP 22:00 2023. CREATED: 12 SEP 08:34 2023",
      "metar":"METAR WSSS 130400Z 18006KT 120V210 9999 FEW018 FEW020TCU SCT160 BKN300 31/25 Q1012 NOSIG",
      "taf":"TAF WSSS 122300Z 1300/1406 15010KT 9999 FEW015 SCT020 TEMPO 1305/1308 3000 TSRA FEW012CB BKN015"
   },
   {
      "airportID":"WMKP",
      "lat":"5.297140",
      "long":"100.277000",
      "selection":"ALTN",
      "colour":"Green",
      "notams": "TURN LEFT ONTO TWY T AND TWY R8. 13 SEP 20:00 2023 UNTIL 13 SEP 22:00 2023. CREATED: 12 SEP 08:34 2023",
      "metar":"METAR WMKP 130400Z 18006KT 120V210 9999 FEW018 FEW020TCU SCT160 BKN300 31/25 Q1012 NOSIG",
      "taf":"TAF WSSS 122300Z 1300/1406 15010KT 9999 FEW015 SCT020 TEMPO 1305/1308 3000 TSRA FEW012CB BKN015"
   },
   {
      "airportID":"WMKK",
      "lat":"2.745580",
      "long":"101.710000",
      "selection":"ALTN",
      "colour":"Amber",
      "notams": "TURN LEFT ONTO TWY T AND TWY R8. 13 SEP 20:00 2023 UNTIL 13 SEP 22:00 2023. CREATED: 12 SEP 08:34 2023",
      "metar":"METAR WMKK 130400Z 18006KT 120V210 9999 FEW018 FEW020TCU SCT160 BKN300 31/25 Q1012 NOSIG",
      "taf":"TAF WMKK 122300Z 1300/1406 15010KT 9999 FEW015 SCT020 TEMPO 1305/1308 3000 TSRA FEW012CB BKN015"
   },
   {
      "airportID":"WMKJ",
      "lat":"1.641310",
      "long":"103.670000",
      "selection":"ALTN",
      "colour":"Red",
      "notams": "TURN LEFT ONTO TWY T AND TWY R8. 13 SEP 20:00 2023 UNTIL 13 SEP 22:00 2023. CREATED: 12 SEP 08:34 2023",
      "metar":"METAR WMKJ 130400Z 18006KT 120V210 9999 FEW018 FEW020TCU SCT160 BKN300 31/25 Q1012 NOSIG",
      "taf":"TAF WMKJ 122300Z 1300/1406 15010KT 9999 FEW015 SCT020 TEMPO 1305/1308 3000 TSRA FEW012CB BKN015"
   }
]
